MACSAT 2 (M 2)          
1 20608U 90043B   12354.20802775  .00000462  00000-0  64222-4 0  8292
2 20608  89.7474  40.6488 0095652  56.1735 304.8543 14.72991667211835
TUBSAT A                
1 21577U 91050D   12354.92329714  .00000162  00000-0  67180-4 0  5439
2 21577  98.6371 311.8802 0006133 176.7655 183.3567 14.38825548124492
S80/T                   
1 22078U 92052C   12353.62780319 -.00000037  00000-0  10000-3 0  2579
2 22078  66.0824 157.1142 0005218   2.5805 357.5239 12.86752846956489
HEALTHSAT 1             
1 22827U 93061E   12354.91286629  .00000206  00000-0  95689-4 0  3036
2 22827  98.5915 297.5915 0009846  60.7958 299.4206 14.30521412  3446
TUBSAT B                
1 22970U 94003B   12353.99304038  .00000051  00000-0  10000-3 0   582
2 22970  82.5599 325.6746 0014810 288.6105  71.3356 13.16930164908564
CERISE                  
1 23606U 95033B   12355.16880986  .00000845  00000-0  99126-4 0  9481
2 23606  98.3553 188.1233 0004867 274.5093  85.5566 14.87832311942225
UPM/LBSAT               
1 23607U 95033C   12353.90983301  .00000930  00000-0  14339-3 0  1611
2 23607  98.2136 109.3031 0006828 117.9319 242.2595 14.75817235937855
FAISAT 2V               
1 24954U 97052B   12354.57373795  .00000065  00000-0  47296-4 0  6561
2 24954  82.9223  75.9501 0040501 127.2105 233.2762 13.79760357767369
MUBLCOM                 
1 25736U 99026B   12355.11168150  .00000555  00000-0  16695-3 0  7957
2 25736  97.6711 187.4764 0006513  73.0481 287.1426 14.45784492715912
RUBIN-3 & SL-8 R/B      
1 27561U 02054C   12354.47938423  .00000447  00000-0  11440-3 0  7735
2 27561  98.0228 142.9896 0046407 218.7457 141.0411 14.54308157533692
APRIZESAT 2             
1 28366U 04025A   12354.87001446  .00000257  00000-0  97142-4 0  3671
2 28366  98.2480 298.6727 0107906 279.6138  79.2886 14.35926111444137
SAUDICOMSAT 1           
1 28369U 04025D   12354.83156306  .00000430  00000-0  11817-3 0  4269
2 28369  97.9768 341.8681 0034815  51.0095 309.4190 14.51146804448789
SAUDICOMSAT 2           
1 28370U 04025E   12353.95436500  .00000221  00000-0  72077-4 0  4220
2 28370  98.0808 324.8273 0059528 122.2499 238.4503 14.46227710447141
APRIZESAT 1             
1 28372U 04025G   12355.00109041  .00000362  00000-0  10597-3 0  4119
2 28372  98.0300 332.8949 0048098  84.2531 276.4172 14.48586921448030
NANOSAT-1               
1 28493U 04049B   12354.04218606  .00000532  00000-0  94463-4 0  4282
2 28493  98.3832   0.0856 0004826 156.2710 203.8718 14.71387930429425
SAUDICOMSAT 7           
1 31119U 07012C   12355.11916753  .00000392  00000-0  88724-4 0  7281
2 31119  97.8325  13.1707 0061305 190.2484 169.7465 14.60079389302508
SAUDICOMSAT 6           
1 31121U 07012E   12355.10979542  .00000370  00000-0  89075-4 0  7262
2 31121  97.8494   3.3508 0077711 222.1897 137.3301 14.56922170301867
SAUDICOMSAT 5           
1 31124U 07012H   12354.98847788  .00000407  00000-0  89121-4 0  7337
2 31124  97.8298  18.6827 0053019 175.0248 185.1489 14.61699305302817
SAUDICOMSAT 3           
1 31125U 07012J   12354.98619314  .00000418  00000-0  88749-4 0  7494
2 31125  97.8275  24.1232 0045050 160.0763 200.2212 14.63276900303130
SAUDICOMSAT 4           
1 31127U 07012L   12354.13617631  .00000386  00000-0  89803-4 0  7310
2 31127  97.8397   7.6078 0069100 208.6785 151.0596 14.58595146302054
APRIZESAT 4             
1 35684U 09041D   12354.79909367  .00000914  00000-0  13506-3 0   684
2 35684  98.0587 265.4748 0049116 341.5529  18.3918 14.76921468182819
APRIZESAT 3             
1 35686U 09041F   12354.82061850  .00001051  00000-0  12749-3 0   834
2 35686  98.0991 280.3231 0077140 305.5703  53.8339 14.83825690183635
AISSAT 1                
1 36797U 10035C   12355.11959040  .00000975  00000-0  12983-3 0  6428
2 36797  98.0486  72.7069 0011186 298.8031  61.2077 14.81955057132024
